{
  "type": "FeatureCollection",
  "features": [
    {
      "type": "Feature",
      "properties": {
        "norad_id": 33844,
        "name": "COSMOS 2251 DEB",
        "group": "cosmos-2251-debris",
        "lat": -38.34658814909971,
        "lon": -117.33533290439568,
        "alt_km": 814.2306846990696,
        "timestamp": "2025-12-14T11:29:50.453173+00:00",
        "meta_object_name": "COSMOS 2251 DEB",
        "meta_object_id": "1993-036CM",
        "meta_epoch": "2025-12-13T14:55:25.608288",
        "meta_mean_motion": 14.3371837,
        "meta_eccentricity": 0.00470489,
        "meta_inclination": 74.067,
        "meta_ra_of_asc_node": 51.1684,
        "meta_arg_of_pericenter": 72.8272,
        "meta_mean_anomaly": 44.255,
        "meta_ephemeris_type": 0,
        "meta_classification_type": "U",
        "meta_norad_cat_id": 33844,
        "meta_element_set_no": 999,
        "meta_rev_at_epoch": 87738,
        "meta_bstar": 0.00050487415,
        "meta_mean_motion_dot": 1.394e-05,
        "meta_mean_motion_ddot": 0,
        "tle_line1": "1 33844U 93036CM  25347.62182417  .00001394  00000+0  50487-3 0  9998",
        "tle_line2": "2 33844  74.0670  51.1684 0047048  72.8272  44.2550 14.33718370877384"
      },
      "geometry": {
        "type": "Point",
        "coordinates": [
          -117.33533290439568,
          -38.34658814909971
        ]
      }
    },
    {
      "type": "Feature",
      "properties": {
        "norad_id": 33848,
        "name": "COSMOS 2251 DEB",
        "group": "cosmos-2251-debris",
        "lat": 68.71683898466465,
        "lon": 127.09966397672557,
        "alt_km": 720.8986546121596,
        "timestamp": "2025-12-14T11:29:50.453183+00:00",
        "meta_object_name": "COSMOS 2251 DEB",
        "meta_object_id": "1993-036CR",
        "meta_epoch": "2025-12-13T12:18:26.212896",
        "meta_mean_motion": 14.44071072,
        "meta_eccentricity": 0.00411489,
        "meta_inclination": 74.0324,
        "meta_ra_of_asc_node": 356.2047,
        "meta_arg_of_pericenter": 51.7888,
        "meta_mean_anomaly": 70.8508,
        "meta_ephemeris_type": 0,
        "meta_classification_type": "U",
        "meta_norad_cat_id": 33848,
        "meta_element_set_no": 999,
        "meta_rev_at_epoch": 87842,
        "meta_bstar": 0.0016065816,
        "meta_mean_motion_dot": 5.534e-05,
        "meta_mean_motion_ddot": 0,
        "tle_line1": "1 33848U 93036CR  25347.51280339  .00005534  00000+0  16066-2 0  9996",
        "tle_line2": "2 33848  74.0324 356.2047 0041148  51.7888  70.8508 14.44071072878427"
      },
      "geometry": {
        "type": "Point",
        "coordinates": [
          127.09966397672557,
          68.71683898466465
        ]
      }
    },
    {
      "type": "Feature",
      "properties": {
        "norad_id": 33892,
        "name": "COSMOS 2251 DEB",
        "group": "cosmos-2251-debris",
        "lat": -70.80492377042471,
        "lon": -24.509220477157452,
        "alt_km": 872.3135449386518,
        "timestamp": "2025-12-14T11:29:50.453193+00:00",
        "meta_object_name": "COSMOS 2251 DEB",
        "meta_object_id": "1993-036CV",
        "meta_epoch": "2025-12-13T11:02:18.543840",
        "meta_mean_motion": 14.23344177,
        "meta_eccentricity": 0.01128195,
        "meta_inclination": 73.8026,
        "meta_ra_of_asc_node": 100.7436,
        "meta_arg_of_pericenter": 131.8397,
        "meta_mean_anomaly": 306.7332,
        "meta_ephemeris_type": 0,
        "meta_classification_type": "U",
        "meta_norad_cat_id": 33892,
        "meta_element_set_no": 999,
        "meta_rev_at_epoch": 86965,
        "meta_bstar": 0.0013285528,
        "meta_mean_motion_dot": 3.191e-05,
        "meta_mean_motion_ddot": 0,
        "tle_line1": "1 33892U 93036CV  25347.45993685  .00003191  00000+0  13286-2 0  9991",
        "tle_line2": "2 33892  73.8026 100.7436 0112819 131.8397 306.7332 14.23344177869652"
      },
      "geometry": {
        "type": "Point",
        "coordinates": [
          -24.509220477157452,
          -70.80492377042471
        ]
      }
    },
    {
      "type": "Feature",
      "properties": {
        "norad_id": 33894,
        "name": "COSMOS 2251 DEB",
        "group": "cosmos-2251-debris",
        "lat": -64.20118487984385,
        "lon": -156.55195178111197,
        "alt_km": 763.5412716820647,
        "timestamp": "2025-12-14T11:29:50.453203+00:00",
        "meta_object_name": "COSMOS 2251 DEB",
        "meta_object_id": "1993-036CX",
        "meta_epoch": "2025-12-13T10:34:27.336288",
        "meta_mean_motion": 13.21308039,
        "meta_eccentricity": 0.0579505,
        "meta_inclination": 73.7676,
        "meta_ra_of_asc_node": 347.9951,
        "meta_arg_of_pericenter": 267.3156,
        "meta_mean_anomaly": 86.1509,
        "meta_ephemeris_type": 0,
        "meta_classification_type": "U",
        "meta_norad_cat_id": 33894,
        "meta_element_set_no": 999,
        "meta_rev_at_epoch": 80717,
        "meta_bstar": 0.0024573462,
        "meta_mean_motion_dot": 2.426e-05,
        "meta_mean_motion_ddot": 0,
        "tle_line1": "1 33894U 93036CX  25347.44059417  .00002426  00000+0  24573-2 0  9999",
        "tle_line2": "2 33894  73.7676 347.9951 0579505 267.3156  86.1509 13.21308039807176"
      },
      "geometry": {
        "type": "Point",
        "coordinates": [
          -156.55195178111197,
          -64.20118487984385
        ]
      }
    },
    {
      "type": "Feature",
      "properties": {
        "norad_id": 33896,
        "name": "COSMOS 2251 DEB",
        "group": "cosmos-2251-debris",
        "lat": -56.2606050099384,
        "lon": 127.66387943799481,
        "alt_km": 755.213982205506,
        "timestamp": "2025-12-14T11:29:50.453213+00:00",
        "meta_object_name": "COSMOS 2251 DEB",
        "meta_object_id": "1993-036CZ",
        "meta_epoch": "2025-12-13T12:20:49.115040",
        "meta_mean_motion": 14.19043166,
        "meta_eccentricity": 0.01264607,
        "meta_inclination": 73.7665,
        "meta_ra_of_asc_node": 155.2765,
        "meta_arg_of_pericenter": 330.8755,
        "meta_mean_anomaly": 84.0652,
        "meta_ephemeris_type": 0,
        "meta_classification_type": "U",
        "meta_norad_cat_id": 33896,
        "meta_element_set_no": 999,
        "meta_rev_at_epoch": 86751,
        "meta_bstar": 0.0010420005,
        "meta_mean_motion_dot": 2.33e-05,
        "meta_mean_motion_ddot": 0,
        "tle_line1": "1 33896U 93036CZ  25347.51445735  .00002330  00000+0  10420-2 0  9991",
        "tle_line2": "2 33896  73.7665 155.2765 0126460 330.8755  84.0652 14.19043166867513"
      },
      "geometry": {
        "type": "Point",
        "coordinates": [
          127.66387943799481,
          -56.2606050099384
        ]
      }
    },
    {
      "type": "Feature",
      "properties": {
        "norad_id": 33899,
        "name": "COSMOS 2251 DEB",
        "group": "cosmos-2251-debris",
        "lat": -42.610544948782234,
        "lon": -82.34706847699968,
        "alt_km": 688.3485068450709,
        "timestamp": "2025-12-14T11:29:50.453223+00:00",
        "meta_object_name": "COSMOS 2251 DEB",
        "meta_object_id": "1993-036DC",
        "meta_epoch": "2025-12-13T17:07:59.379744",
        "meta_mean_motion": 14.61204129,
        "meta_eccentricity": 0.00566269,
        "meta_inclination": 74.0539,
        "meta_ra_of_asc_node": 83.8649,
        "meta_arg_of_pericenter": 146.3653,
        "meta_mean_anomaly": 14.2404,
        "meta_ephemeris_type": 0,
        "meta_classification_type": "U",
        "meta_norad_cat_id": 33899,
        "meta_element_set_no": 999,
        "meta_rev_at_epoch": 88853,
        "meta_bstar": 0.0011683556,
        "meta_mean_motion_dot": 5.863e-05,
        "meta_mean_motion_ddot": 0,
        "tle_line1": "1 33899U 93036DC  25347.71388171  .00005863  00000+0  11684-2 0  9993",
        "tle_line2": "2 33899  74.0539  83.8649 0056626 146.3653  14.2404 14.61204129888530"
      },
      "geometry": {
        "type": "Point",
        "coordinates": [
          -82.34706847699968,
          -42.610544948782234
        ]
      }
    },
    {
      "type": "Feature",
      "properties": {
        "norad_id": 33900,
        "name": "COSMOS 2251 DEB",
        "group": "cosmos-2251-debris",
        "lat": -58.26230000641031,
        "lon": -155.84906822283764,
        "alt_km": 707.3479673133415,
        "timestamp": "2025-12-14T11:29:50.453233+00:00",
        "meta_object_name": "COSMOS 2251 DEB",
        "meta_object_id": "1993-036DD",
        "meta_epoch": "2025-12-13T12:02:39.588576",
        "meta_mean_motion": 14.5835238,
        "meta_eccentricity": 0.00467896,
        "meta_inclination": 74.0195,
        "meta_ra_of_asc_node": 358.4111,
        "meta_arg_of_pericenter": 150.3325,
        "meta_mean_anomaly": 2.9666,
        "meta_ephemeris_type": 0,
        "meta_classification_type": "U",
        "meta_norad_cat_id": 33900,
        "meta_element_set_no": 999,
        "meta_rev_at_epoch": 89047,
        "meta_bstar": 0.00061985456,
        "meta_mean_motion_dot": 2.884e-05,
        "meta_mean_motion_ddot": 0,
        "tle_line1": "1 33900U 93036DD  25347.50184709  .00002884  00000+0  61985-3 0  9994",
        "tle_line2": "2 33900  74.0195 358.4111 0046789 150.3325   2.9666 14.58352380890475"
      },
      "geometry": {
        "type": "Point",
        "coordinates": [
          -155.84906822283764,
          -58.26230000641031
        ]
      }
    }
  ]
}